{"type":"FeatureCollection","name":"Nepal_Administrative_Boundary_National","crs":{"type":"name","properties":{"name":"urn:ogc:def:crs:OGC:1.3:CRS84"}},"features":[{"type":"Feature","properties":{"OBJECTID":1,"Shape_Leng":33.3622805648,"Shape_Area":13.6128703535},"geometry":{"type":"Polygon","coordinates":[[[80.60614127150262,30.466972730007456],[80.7361942821405,30.3966703640462],[80.80554962151786,30.320118344785897],[80.91039283745954,30.300402428429493],[80.93768923916718,30.259519917310456],[80.98468835248553,30.268728431871637],[81.0242849634804,30.246135449391602],[81.04686366922294,30.210209553528216],[81.03532151377698,30.196976271537835],[81.08488757640072,30.148218209303025],[81.08295882648872,30.10055064699486],[81.10984195104521,30.08804808485121],[81.09263551461737,30.054242021452296],[81.12570070122655,30.02024845929901],[81.1648638893571,30.010494459152085],[81.19669988978814,30.02291114683203],[81.21921238924051,30.007324896626756],[81.24714857674547,30.011225146623303],[81.25501357701506,30.02365245979331],[81.2391295765687,30.031802709727458],[81.27371726503992,30.045282896988283],[81.29132951424577,30.074449146611016],[81.2922559517508,30.112551834399767],[81.25984863990288,30.15132677261255],[81.3066271396309,30.16429495964485],[81.33389588898422,30.153252522386083],[81.39683226419777,30.206657146909947],[81.39377645152217,30.25056927165474],[81.41838082711354,30.281701209043604],[81.40136926477976,30.281603334926103],[81.40369251489773,30.293131210037473],[81.42505670240502,30.305144335043167],[81.39817776419261,30.323460647291085],[81.40782207672765,30.353211084823783],[81.39706213990593,30.36798870961144],[81.43112545167844,30.383448522331605],[81.40247220143112,30.396265709594957],[81.41009026405453,30.42131670919889],[81.44680751475516,30.41595889738528],[81.49125676408852,30.381321334312247],[81.55363238952322,30.369868772026337],[81.5626283888891,30.428078896923694],[81.60862051512476,30.412221709764253],[81.62376288964577,30.42442689758343],[81.61974113944211,30.44595439747758],[81.63581201451302,30.445148585139123],[81.75295357724593,30.38881539661344],[81.86953776445642,30.377360023046776],[81.91634295156615,30.35001783415578],[81.95118576511112,30.358982396820238],[81.99042401425697,30.320799958951],[82.01816288960583,30.344185397937906],[82.05787070177166,30.332620272008057],[82.06912951501516,30.35672902222666],[82.08747826491009,30.359092397396353],[82.1126377650209,30.344804896828634],[82.13017007708743,30.302287334592904],[82.10165857798103,30.236675022134534],[82.12921251584504,30.2258062097888],[82.14099739021742,30.198934772821644],[82.18636101534872,30.190843522010994],[82.18394201441242,30.16089339721259],[82.20737732800137,30.153902334725103],[82.17270376506673,30.12200264700465],[82.18843732782057,30.110958522617864],[82.16776401479746,30.08143989613427],[82.17378870268647,30.065235084131984],[82.24861214043813,30.07521833495838],[82.3004086404465,30.03790583378725],[82.33602489073616,30.04692227204532],[82.36491314012949,30.010445022519832],[82.39740839128427,30.024006021960417],[82.50117432733344,29.94603083455553],[82.53165714036487,29.971169209591494],[82.55128657791334,29.96322902150223],[82.60432570356852,29.889058147115918],[82.6442358910736,29.87052202167405],[82.62291539083276,29.83728645940272],[82.69915176604115,29.855345209413997],[82.72856295231855,29.83530770898369],[82.73909320318893,29.813532771420455],[82.69606439075915,29.79116714744589],[82.69203257804116,29.76312333357515],[82.75416432802149,29.76556589674891],[82.76488976595004,29.731172896212286],[82.81986039164389,29.721125208961382],[82.8284187656136,29.689873834410093],[82.86265801535518,29.684558083888533],[82.93745401569038,29.705456896518683],[82.95768989127549,29.66263695882867],[83.01059314106067,29.672554459320963],[83.08769776583932,29.60273739631384],[83.12236039121927,29.628566458775083],[83.15208226628368,29.62382208352244],[83.16716257948951,29.615961709365536],[83.16108970412654,29.596380021320954],[83.18201776630684,29.59297139651278],[83.1988454532551,29.611122022163784],[83.22014920362301,29.605467521309208],[83.2165198285274,29.58925908413954],[83.23404576619919,29.5778412707582],[83.27995395421169,29.56892633358359],[83.28416964141582,29.557548459094278],[83.25740376687048,29.556760896698165],[83.26948014119574,29.507422146714816],[83.31780432910648,29.50891727141493],[83.3491929536919,29.49254639689883],[83.34440620418314,29.465807458847223],[83.37347414081898,29.42851664662595],[83.41531976649406,29.421763459316367],[83.42826989064292,29.40240364661105],[83.41524095440656,29.36686039609043],[83.4469582047575,29.34038327137091],[83.44560720450892,29.29989152197618],[83.46728782926999,29.274517521866244],[83.48928626724756,29.280132582952376],[83.51688082838763,29.2557947088589],[83.52096089153207,29.218458208379673],[83.57412770383058,29.202483271186168],[83.58060914119903,29.178759958705314],[83.61227545394917,29.1807209583057],[83.64266132905715,29.16063283323865],[83.66533032943124,29.18282227193049],[83.65796489176648,29.203921645967228],[83.71334720460993,29.24453470851006],[83.79938220432535,29.25000645903083],[83.7965976415681,29.277362271751542],[83.81471576661937,29.301924146282374],[83.85018064122374,29.297558334349787],[83.90687664144389,29.325698458417207],[83.94506639170078,29.316219896331233],[83.97796089238142,29.328603146318244],[84.00307376624136,29.311940396831915],[83.9919515168491,29.298388771025145],[84.02851867789474,29.28555681059845],[84.04449462952357,29.300777453117064],[84.07123565670031,29.285198229314858],[84.09233093252658,29.294073122376744],[84.12243652402651,29.27952005290814],[84.11846160871636,29.244121568955336],[84.20507812535527,29.236570375422673],[84.20186614990308,29.213878649180458],[84.16441345251894,29.185199754764938],[84.17693328794104,29.130805986607186],[84.20309448352367,29.12391664283882],[84.19181060797331,29.046876924830315],[84.22370147784102,29.05340577895356],[84.24999999990007,29.037193315519232],[84.22803776772889,28.893908833226135],[84.26769707945675,28.897684707883002],[84.32576126686905,28.862590271224065],[84.34528307985045,28.87286989632878],[84.41110264287272,28.853474958802394],[84.40277564198249,28.830147646596743],[84.43748007954213,28.820789770831254],[84.43870001709223,28.769363208745176],[84.46257008004528,28.75120339562028],[84.4940425799013,28.73462933277756],[84.5588849557762,28.75206227065729],[84.57385233032096,28.735070083317794],[84.62852045555474,28.736372396069328],[84.67053132985711,28.683291083216886],[84.70714420524104,28.670983020150402],[84.69697264267336,28.636321832786393],[84.85929070500208,28.57047470824125],[84.90318445479886,28.593146957865997],[84.94711570542552,28.59468820879397],[84.95110264287274,28.58004814610524],[84.98562783026028,28.591271207700117],[85.06082833036322,28.682302083474553],[85.08617533012756,28.670830458259104],[85.11714939333001,28.686597707818066],[85.15943214347868,28.6428387079402],[85.19007833005094,28.64160964496915],[85.19958426750003,28.62070170871698],[85.17591283061279,28.59731008329385],[85.19380826823715,28.568878208362662],[85.18912451808217,28.534128520514912],[85.16837064289092,28.531942207466955],[85.15513576820126,28.49039483295536],[85.12074058051337,28.48540602017181],[85.10174533048269,28.456713957882926],[85.12887414352707,28.392243395016692],[85.11019026846628,28.346405895515772],[85.12300951787512,28.335571332950735],[85.18410995590989,28.324090582314568],[85.20470114284359,28.340469271040206],[85.27516608015054,28.28758533329659],[85.3426376438124,28.303763395864053],[85.37991095522642,28.278375958084098],[85.4176625809634,28.326930769939167],[85.5088155810742,28.333807832565583],[85.60289945644485,28.304153082898495],[85.61098801918178,28.256667582942725],[85.66303189390698,28.30276102050476],[85.66805814366842,28.34782933255775],[85.68850545616192,28.346748333069286],[85.68623220655115,28.382273020683442],[85.71416745606336,28.385934645467614],[85.7511766428878,28.237951270235044],[85.77869776898694,28.20838445717709],[85.85084883080896,28.18394933219605],[85.87246008096815,28.123539957503112],[85.90038526886514,28.10884489497596],[85.90323658110339,28.05365633207424],[85.97948308177888,27.996470769710413],[85.95110326860095,27.940787207363883],[86.00297164422608,27.9110839581582],[86.0671735813957,27.899498895157933],[86.12634326852714,27.9273902703448],[86.0817460807171,28.020123770495786],[86.09721420587101,28.06162739568788],[86.0851393307156,28.090695082312322],[86.13256314347433,28.09990151943964],[86.14438289355576,28.125845207690304],[86.18047720635803,28.143336769676353],[86.17622576930387,28.168036895186617],[86.18910058152682,28.173943707136402],[86.22222095683173,28.11142014502383],[86.22489645610665,28.095531208198736],[86.20655151933715,28.083775270412445],[86.22913608146519,27.98069451973646],[86.29116364408702,27.978144644959514],[86.32115776911587,27.94762614503054],[86.33772339451917,27.964841144803074],[86.35033526925736,27.937318019511167],[86.38371164467668,27.93761358260093],[86.4131536435259,27.90632514518944],[86.44485895717526,27.905463707084607],[86.47179039421144,27.94594445687136],[86.51853445709958,27.95677026993212],[86.52357320653829,28.019100770084663],[86.56776245647234,28.06874589480725],[86.56429426866566,28.1049102081397],[86.57683201948225,28.112817144695498],[86.60679120674894,28.099898707259626],[86.61078476860223,28.075769894964765],[86.63724070709316,28.07048358285124],[86.6915367063541,28.1084209572615],[86.74072383243896,28.103536270682355],[86.76737914523153,28.07437820758821],[86.75536370716941,28.037680582792746],[86.79254720688829,28.0186801454725],[86.86988758174664,28.02500714586313],[86.8923864573693,27.996713895130313],[86.92781826929786,27.987628020217073],[86.93687889484528,27.96175189533369],[87.04161339534193,27.95016901948469],[87.10966514493066,27.874700456660776],[87.11839420752676,27.840097957255068],[87.1744320820751,27.820870270246814],[87.228176269919,27.81947420766852],[87.26295264514846,27.850704207133617],[87.30612120772764,27.843205206655057],[87.32038101996818,27.825500707691617],[87.36013014429085,27.827586957672054],[87.42110695791979,27.862264207826968],[87.43428733279416,27.84215964495172],[87.40614602072242,27.83383126989719],[87.452332208065,27.822071832848906],[87.49263564571856,27.8462327698266],[87.53850183269361,27.842911520450457],[87.56498170753986,27.866801956645133],[87.58890483319169,27.852604270470863],[87.59204608236092,27.820146770157464],[87.61402295819295,27.81033270788828],[87.63837470792646,27.834139456770572],[87.66764220772171,27.83618970688957],[87.66802602038462,27.806629832101123],[87.72792058266884,27.805052395152074],[87.78122677099879,27.865658707883142],[87.78717770818486,27.899137457627717],[87.82727477031443,27.919942269520163],[87.83439089612307,27.952642020213148],[87.85956752112423,27.947740019886055],[87.86848839562305,27.910548519798454],[87.9347735835342,27.917659582423937],[87.98744820856808,27.885711957241085],[88.03268308315779,27.905661458109932],[88.06705589571317,27.886093394794443],[88.08676627044713,27.89525745766565],[88.09842539531587,27.86696064471812],[88.13752320902904,27.881480207245886],[88.19835545843785,27.854304207673238],[88.2038905203313,27.8372222068395],[88.17575689566439,27.82023676981123],[88.19991958272266,27.790583957283843],[88.1811772085614,27.746790769678285],[88.15888852068878,27.736300707711678],[88.14724120841521,27.665377081986776],[88.08457902030574,27.5847399570834],[88.04634502070633,27.495717770159104],[88.08283452079661,27.42955226942172],[88.05315539590487,27.412651768864123],[88.04428058288278,27.3717501444537],[88.06921170825387,27.335635832527828],[88.03431345869922,27.28594020637553],[88.01476539540687,27.21572883112077],[88.02195389595562,27.170708519482616],[87.99001664535206,27.11902126911633],[88.02369564623723,27.087395019364806],[88.04022439583929,27.036291456885294],[88.08022364590471,27.03501989465252],[88.09485939544481,27.004183206489756],[88.13814727107979,26.9845543939702],[88.12305227104565,26.950267018808006],[88.14864208326566,26.9206753934547],[88.1389833330145,26.898367393540354],[88.17710958394025,26.85923720603239],[88.18898477093063,26.738182518608482],[88.16307839555168,26.636256581076452],[88.1007390838418,26.53706220655573],[88.09293802087302,26.50650483073349],[88.109838396425,26.474894955837556],[88.09448002093632,26.4627443316856],[88.09821733266375,26.43884520534209],[88.03684539559862,26.391735705638382],[88.0325626459495,26.36464164329732],[88.01022252045311,26.360757018122],[87.99418920826554,26.39223701922316],[87.9293415830478,26.417968080762364],[87.92737277103663,26.445219081095843],[87.90124814548557,26.44845083174056],[87.91218039600858,26.45746683112941],[87.89065008303504,26.486393519345484],[87.85120295825004,26.436158455548423],[87.79146845820287,26.46891958137371],[87.76963264553018,26.411011331008183],[87.73617639502476,26.40745026841529],[87.68020014562035,26.43505458090425],[87.68084977090035,26.41548758148673],[87.65278370780203,26.405546393751138],[87.65435683250189,26.393178768585358],[87.60712170830033,26.38046451862266],[87.55004389550948,26.41820339377165],[87.46910014495592,26.440057956409646],[87.37116770812338,26.407743518448797],[87.36079514438052,26.36072814358897],[87.34345902031765,26.34742364428587],[87.31481602054299,26.37114820592501],[87.26835583225602,26.373549331036884],[87.25873333277718,26.410809831608617],[87.16494414455678,26.403719956111274],[87.09396570785123,26.450016081077422],[87.07423733228711,26.585458331236964],[87.04709389446776,26.586954893953248],[87.01773189481122,26.531779893727162],[86.93505676945443,26.51642876857278],[86.93229333177203,26.48928439365983],[86.89409376991165,26.485817206798686],[86.89617214542835,26.461580206061797],[86.83585064439183,26.438688768272186],[86.76869895699127,26.458970706233288],[86.73333101941108,26.421987017886636],[86.69576989436524,26.45084933173132],[86.57265758148236,26.496158018178107],[86.54422564449806,26.538154768627805],[86.4996810193636,26.54198864326139],[86.33565001923313,26.618636394454143],[86.2545092065348,26.61676076839484],[86.21962983195118,26.588119080731133],[86.19799014343045,26.594055768159365],[86.19459545721463,26.614378331195155],[86.13836995620863,26.60622958133024],[86.1407921434427,26.628628018868028],[86.02932364357139,26.66637251837699],[85.96250220701137,26.65104758148084],[85.95030401861567,26.61319420554821],[85.93084851894412,26.61620408175304],[85.85142870646968,26.56855870571968],[85.8532925190346,26.608214394079084],[85.81980564391552,26.602448268472926],[85.8036874555118,26.62397620633692],[85.73645470591998,26.65023108159926],[85.7256367061691,26.68653564420464],[85.73671901846802,26.795582393912525],[85.722983831139,26.820259456308918],[85.64463489358559,26.85295201872077],[85.6366761434893,26.871948393803507],[85.58744758114113,26.84690939385348],[85.57759389294387,26.86077045659141],[85.5679686433383,26.84066883180128],[85.45698808053555,26.781585144139058],[85.40995508076247,26.79095108142741],[85.33675276902511,26.741239581341574],[85.21400001858603,26.75761083177457],[85.17897276847856,26.80939464414763],[85.19208826805931,26.86981401840228],[85.02421876808182,26.85459889322442],[85.03147920540107,26.87499914329601],[85.06244126715092,26.886668269525046],[84.96981014312365,26.915985580969846],[84.98046532961126,26.940020581384886],[84.96450939329401,26.960220332102836],[84.89362764270163,26.969550956611386],[84.82775814302403,27.0206554561845],[84.79574189327383,26.995546269544775],[84.77524045598238,27.017567268814503],[84.75892345535328,27.002584582412737],[84.64499683043948,27.0461697064668],[84.64847620491298,27.075326831568134],[84.67681182990214,27.096213269526856],[84.69312995558306,27.214751019843845],[84.6245248297572,27.336086269665714],[84.29425083001189,27.38461851932925],[84.2563682674816,27.451868206752465],[84.21065895464716,27.442395206973345],[84.20793001765628,27.469473144470214],[84.15101483017025,27.48574164466129],[84.14799839251185,27.518604331824633],[84.09995095477285,27.517031520088665],[84.09756064221,27.48939301987201],[84.02929476674018,27.43343939471231],[83.93328495453716,27.44937351977228],[83.87143026679348,27.429454519410626],[83.87489882871807,27.39215689392563],[83.90843564229124,27.382727894377012],[83.86483370451197,27.346452019245476],[83.61686720435807,27.469349582117502],[83.39089995337031,27.479492957234243],[83.40398189205087,27.457449706938576],[83.38627951638671,27.436001831219585],[83.41173632876871,27.412813395022226],[83.38685914113665,27.390177519377062],[83.39014864174652,27.37569170750635],[83.34455814104552,27.334453081944332],[83.29674951647712,27.333187144071587],[83.2676442040169,27.3653638319754],[83.27430001633275,27.38343220653121],[83.18988020350878,27.454236770110867],[83.03613582790632,27.44869095772168],[82.95620432816725,27.46776095670282],[82.93142289135352,27.500995581880773],[82.7373820154678,27.50249489382435],[82.75778689075253,27.5875751444774],[82.73685689053315,27.60947201931839],[82.7382367032614,27.642963957620736],[82.7137045783038,27.664912019174324],[82.7099605783182,27.72170702036277],[82.45066620238345,27.678544270102066],[82.21017214033208,27.842976831915337],[82.1252455154683,27.864892145556098],[82.07284982775747,27.922505956984423],[81.97009851493459,27.928829520166346],[81.92802501454287,27.859647769728838],[81.88734688964735,27.856869520212342],[81.70016538942127,27.988089581968723],[81.62617326428483,28.001271082794347],[81.48021095167405,28.082440082943606],[81.48584613958786,28.118153083198308],[81.45174220184134,28.140785144818608],[81.44766845103834,28.161224582848376],[81.37649026411447,28.17685814548713],[81.37308045130192,28.14229214506662],[81.31980588943043,28.133458020071714],[81.32969263940379,28.14818627028029],[81.30358688972325,28.165987895125227],[81.32302601363966,28.168736707133462],[81.32237220111625,28.197169708015736],[81.23449645194984,28.288899082726516],[81.2363376384713,28.324567332716356],[81.21242138903602,28.360501208264225],[81.08720032603429,28.383176395074713],[81.03657438899688,28.41329533251377],[81.03407063954842,28.398682333123304],[81.01849101374938,28.41569958276972],[81.03551663878204,28.427857270196967],[81.01473582619752,28.438158520399497],[81.01920601434625,28.451571208144856],[80.98083607592429,28.434284020691052],[80.96657520068504,28.444547082981558],[80.98157626383369,28.455192519918853],[80.95348057616769,28.44746958285515],[80.93401226295566,28.458534957322513],[80.94427963839479,28.46837670791888],[80.91737357662936,28.457578332274352],[80.91034238819077,28.497513270021443],[80.87756470134991,28.50970052086251],[80.8632878892247,28.504084770895588],[80.86727032646445,28.489502395219517],[80.7907082635756,28.52430708290558],[80.76967501309156,28.565563395434538],[80.71632338831375,28.56782908264603],[80.69196832547794,28.58702326990806],[80.69741213855951,28.60332045847241],[80.67908370075224,28.604293583382287],[80.66930170111277,28.64184158372217],[80.59140207654474,28.647689020631958],[80.59209251305913,28.679682833196352],[80.54152695200736,28.690593958644342],[80.50783182627794,28.67094689528301],[80.5324008890899,28.572211333286475],[80.52445826383786,28.552756145679552],[80.47023820153197,28.58297477116878],[80.45330363915167,28.62858027076294],[80.41710757615374,28.639197770261035],[80.37299382610428,28.629065083586795],[80.32759363903529,28.66630489525477],[80.31897407609279,28.699793583407256],[80.25788726368643,28.72934002052557],[80.25765370165715,28.75446395874485],[80.21773801389838,28.75534201991826],[80.11978801420554,28.828764395760402],[80.07665070126887,28.82432745824576],[80.0601478269607,28.916376708318467],[80.10191938896867,28.98643014553494],[80.11961376426393,28.981649583361616],[80.13726632647985,29.007253396227384],[80.12624651436528,29.01303395775102],[80.13017276466155,29.06103764617052],[80.14633213841762,29.10336683371247],[80.18513901425416,29.137071896051282],[80.23496882645026,29.11844545799164],[80.27334670138924,29.142066146135903],[80.24248320173848,29.202440646019113],[80.25000013919515,29.22099458343331],[80.28892438914937,29.195174333428724],[80.29897013926063,29.2050652085926],[80.29237995137385,29.231564083415776],[80.31860882633646,29.314756583349833],[80.28182301402092,29.346242458822587],[80.27634032684466,29.3930097718835],[80.2433269519774,29.411585708513826],[80.24464020138424,29.44376752165391],[80.30418907686447,29.453092645909067],[80.2883270765335,29.476870522057084],[80.35134695200037,29.518906770731064],[80.3596923889927,29.532524833954085],[80.34438907629493,29.552914646493775],[80.38053395078123,29.561323958733794],[80.40969826326432,29.595376896826394],[80.42194420116414,29.639131834466752],[80.3862112008863,29.674397833893067],[80.3674950131844,29.74777208431442],[80.39924613919794,29.75928664676138],[80.40860020093862,29.794454772070196],[80.4364588893664,29.80601964618984],[80.49506851380102,29.79553964673744],[80.50898963866098,29.82310508423234],[80.55443320183088,29.850407021267074],[80.5971179516323,29.95305689685847],[80.67966563855845,29.958906834782624],[80.72109920116725,30.00018327234028],[80.74940701372276,30.0065808964913],[80.76295282631207,30.049520335195382],[80.80753576346478,30.089667333980344],[80.87969051340662,30.129245272351568],[80.87287957613165,30.161320959195052],[80.76345950165484,30.278900410825372],[80.7576456850004,30.306188069324037],[80.66870143242522,30.34295074208319],[80.61343020563959,30.444179965832745],[80.54999677872843,30.43144075518677],[80.5672731167611,30.459415079342534],[80.60614127150262,30.466972730007456]],[[84.24273681605126,29.000000017686716],[84.24272557272712,28.9999723113732],[84.24299521465758,29.00000001678734],[84.24273681605126,29.000000017686716]]]}}]}